OBJECT_NAME,OBJECT_ID,EPOCH,MEAN_MOTION,ECCENTRICITY,INCLINATION,RA_OF_ASC_NODE,ARG_OF_PERICENTER,MEAN_ANOMALY,EPHEMERIS_TYPE,CLASSIFICATION_TYPE,NORAD_CAT_ID,ELEMENT_SET_NO,REV_AT_EPOCH,BSTAR,MEAN_MOTION_DOT,MEAN_MOTION_DDOT
ICEYE-X39,2024-149CG,2026-07-12T03:49:59.026944,15.00059444,.00070359,97.6782,269.8455,55.0251,305.1632,0,U,60546,999,10386,.20792867E-3,.2531E-4,0
UMBRA-10,2024-149CH,2026-07-11T18:42:29.978496,15.18785708,.00014713,97.6983,280.4472,169.7068,190.4196,0,U,60547,999,10446,.43622735E-3,.9005E-4,0
ICEYE-X33,2024-149CJ,2026-07-09T20:04:20.713440,15.00937312,.0001952,97.7345,269.8614,73.3938,286.7500,0,U,60548,999,10360,.25134873E-3,.3143E-4,0
ICEYE-X40,2024-149CK,2026-07-12T03:37:52.416768,14.98055622,.00037278,97.6800,269.2441,13.8478,346.2846,0,U,60549,999,10381,.11459305E-3,.1297E-4,0
SATELIOT_1,2024-149CL,2026-07-11T17:45:04.074336,14.98154644,.0006048,97.6733,268.2297,2.2336,357.8912,0,U,60550,999,10374,.91694869E-4,.1029E-4,0
BRO-14,2024-149CM,2026-07-11T16:08:15.761760,14.96229545,.00069891,97.6861,268.0100,27.4384,332.7206,0,U,60551,999,10365,.55478545E-4,.569E-5,0
SATELIOT_3,2024-149CN,2026-07-11T18:46:34.730688,14.98159770,.00054276,97.6824,269.0861,19.1624,340.9802,0,U,60552,999,10376,.56786601E-4,.615E-5,0
BRO-15,2024-149CP,2026-07-09T10:45:19.005696,14.96220766,.00085255,97.6798,265.4070,23.7668,336.3946,0,U,60553,999,10333,.69493641E-4,.727E-5,0
UM5-RIBAT,2024-149CQ,2026-07-11T17:39:04.383360,15.01209332,.00010781,97.6613,270.2033,11.1968,348.9280,0,U,60554,999,10387,.11632362E-3,.1433E-4,0
UM5-EOSAT,2024-149CR,2026-07-12T03:50:58.105536,15.01716758,.00091927,97.6775,271.6151,43.7464,316.4487,0,U,60555,999,10396,.17275751E-3,.2188E-4,0
LASARSAT,2024-247Q,2026-07-12T05:19:43.614048,15.47906721,.00068606,44.9750,121.3703,145.2872,214.8468,0,U,62391,999,8719,.43383974E-3,.22836E-3,0
CROCUBE,2024-247T,2026-07-11T23:51:35.008416,15.50022679,.00071113,44.9710,119.5598,151.4755,208.6527,0,U,62394,999,8719,.48357142E-3,.27505E-3,0
TEVEL2-4,2025-052D,2026-07-12T03:34:01.811712,15.35493352,.00038061,97.3883,89.5932,58.2703,301.8911,0,U,63213,999,7394,.3168171E-3,.10852E-3,0
TEVEL2-5,2025-052E,2026-07-12T04:07:43.933728,15.35309356,.0003832,97.3875,89.5570,59.0491,301.1129,0,U,63214,999,7394,.31446899E-3,.10707E-3,0
TEVEL2-6,2025-052F,2026-07-12T04:26:18.684672,15.35273569,.00038208,97.3878,89.5546,61.8174,298.3455,0,U,63215,999,7394,.32905453E-3,.11196E-3,0
TEVEL2-1,2025-052H,2026-07-12T03:47:06.667584,15.34705870,.0004471,97.3854,89.1215,66.2776,293.8936,0,U,63217,999,7392,.30871936E-3,.1031E-3,0
TEVEL2-3,2025-052J,2026-07-12T03:38:00.851136,15.34767444,.00042525,97.3855,89.1404,67.7736,292.3958,0,U,63218,999,7392,.31046195E-3,.10389E-3,0
TEVEL2-2,2025-052K,2026-07-12T03:47:19.518720,15.34716519,.00045323,97.3850,89.1247,66.8896,293.2824,0,U,63219,999,7392,.30803975E-3,.10291E-3,0
TEVEL2-9,2025-052AD,2026-07-12T04:02:01.951296,15.32670115,.00079021,97.3918,88.4550,65.0146,295.1916,0,U,63237,999,7385,.30008574E-3,.9399E-4,0
TEVEL2-7,2025-052AE,2026-07-12T03:34:02.395776,15.32354538,.00079853,97.3916,88.3405,65.2305,294.9767,0,U,63238,999,7384,.29902657E-3,.9273E-4,0
TEVEL2-8,2025-052AF,2026-07-11T16:48:01.545696,15.32332149,.00080555,97.3915,87.8685,67.3029,292.9064,0,U,63239,999,7377,.29863864E-3,.9255E-4,0
FORESAIL-1 PRIME,2025-276DS,2026-07-12T03:55:56.677152,15.18922403,.00031233,97.4195,265.9794,51.5125,308.6390,0,U,66778,999,3419,.14066162E-3,.2869E-4,0
