ICEYE-X39               
1 60546U 24149CG  26193.15971096  .00002531  00000+0  20793-3 0  9994
2 60546  97.6782 269.8455 0007035  55.0251 305.1632 15.00059444103864
UMBRA-10                
1 60547U 24149CH  26192.77951364  .00009005  00000+0  43623-3 0  9998
2 60547  97.6983 280.4472 0001471 169.7068 190.4196 15.18785708104468
ICEYE-X33               
1 60548U 24149CJ  26190.83635085  .00003143  00000+0  25135-3 0  9998
2 60548  97.7345 269.8614 0001952  73.3938 286.7500 15.00937312103605
ICEYE-X40               
1 60549U 24149CK  26193.15130112  .00001297  00000+0  11459-3 0  9990
2 60549  97.6800 269.2441 0003727  13.8478 346.2846 14.98055622103812
SATELIOT_1              
1 60550U 24149CL  26192.73963049  .00001029  00000+0  91695-4 0  9992
2 60550  97.6733 268.2297 0006048   2.2336 357.8912 14.98154644103749
BRO-14                  
1 60551U 24149CM  26192.67240465  .00000569  00000+0  55479-4 0  9994
2 60551  97.6861 268.0100 0006989  27.4384 332.7206 14.96229545103658
SATELIOT_3              
1 60552U 24149CN  26192.78234642  .00000615  00000+0  56787-4 0  9992
2 60552  97.6824 269.0861 0005427  19.1624 340.9802 14.98159770103763
BRO-15                  
1 60553U 24149CP  26190.44813664  .00000727  00000+0  69494-4 0  9994
2 60553  97.6798 265.4070 0008525  23.7668 336.3946 14.96220766103330
UM5-RIBAT               
1 60554U 24149CQ  26192.73546740  .00001433  00000+0  11632-3 0  9992
2 60554  97.6613 270.2033 0001078  11.1968 348.9280 15.01209332103872
UM5-EOSAT               
1 60555U 24149CR  26193.16039474  .00002188  00000+0  17276-3 0  9990
2 60555  97.6775 271.6151 0009192  43.7464 316.4487 15.01716758103969
LASARSAT                
1 62391U 24247Q   26193.22203257  .00022836  00000+0  43384-3 0  9999
2 62391  44.9750 121.3703 0006860 145.2872 214.8468 15.47906721 87198
CROCUBE                 
1 62394U 24247T   26192.99415519  .00027505  00000+0  48357-3 0  9994
2 62394  44.9710 119.5598 0007111 151.4755 208.6527 15.50022679 87199
TEVEL2-4                
1 63213U 25052D   26193.14863208  .00010852  00000+0  31682-3 0  9990
2 63213  97.3883  89.5932 0003806  58.2703 301.8911 15.35493352 73949
TEVEL2-5                
1 63214U 25052E   26193.17203627  .00010707  00000+0  31447-3 0  9995
2 63214  97.3875  89.5570 0003832  59.0491 301.1129 15.35309356 73945
TEVEL2-6                
1 63215U 25052F   26193.18493848  .00011196  00000+0  32905-3 0  9996
2 63215  97.3878  89.5546 0003820  61.8174 298.3455 15.35273569 73943
TEVEL2-1                
1 63217U 25052H   26193.15771606  .00010310  00000+0  30872-3 0  9994
2 63217  97.3854  89.1215 0004471  66.2776 293.8936 15.34705870 73924
TEVEL2-3                
1 63218U 25052J   26193.15139874  .00010389  00000+0  31046-3 0  9990
2 63218  97.3855  89.1404 0004252  67.7736 292.3958 15.34767444 73928
TEVEL2-2                
1 63219U 25052K   26193.15786480  .00010291  00000+0  30804-3 0  9995
2 63219  97.3850  89.1247 0004532  66.8896 293.2824 15.34716519 73926
TEVEL2-9                
1 63237U 25052AD  26193.16807814  .00009399  00000+0  30009-3 0  9995
2 63237  97.3918  88.4550 0007902  65.0146 295.1916 15.32670115 73857
TEVEL2-7                
1 63238U 25052AE  26193.14863884  .00009273  00000+0  29903-3 0  9995
2 63238  97.3916  88.3405 0007985  65.2305 294.9767 15.32354538 73842
TEVEL2-8                
1 63239U 25052AF  26192.70001789  .00009255  00000+0  29864-3 0  9991
2 63239  97.3915  87.8685 0008055  67.3029 292.9064 15.32332149 73775
FORESAIL-1 PRIME        
1 66778U 25276DS  26193.16385043  .00002869  00000+0  14066-3 0  9991
2 66778  97.4195 265.9794 0003123  51.5125 308.6390 15.18922403 34192
